     3.04           N: GNSS NAV DATA    M: MIXED NAV DATA   RINEX VERSION / TYPE
NetR9 5.37          Receiver Operator   20191225 120000 UTC PGM / RUN BY / DATE
GPSA    .8382D-08  -.1490D-07  -.5960D-07   .1192D-06       IONOSPHERIC CORR
GPSB    .9421D+05  -.1311D+06  -.1311D+06   .8520D+06       IONOSPHERIC CORR
GAL     .3250D+02   .3398D+00   .4272D-03   .0000D+00       IONOSPHERIC CORR
QZSA    .3725D-08  -.2980D-07  -.2980D-06  -.3576D-06       IONOSPHERIC CORR
QZSB    .5530D+05  -.7045D+06  -.8389D+07  -.8389D+07       IONOSPHERIC CORR
GPUT   .2793967724D-08  .000000000D+00 503808 2085          TIME SYSTEM CORR
GAUT   .0000000000D+00  .000000000D+00 259200 2085          TIME SYSTEM CORR
QZUT   .9313225746D-08  .000000000D+00 528384 2085          TIME SYSTEM CORR
GPGA  -.2852175385D-08 -.754951657D-14 259200 2085          TIME SYSTEM CORR
    18    18  2185     7                                    LEAP SECONDS
                                                            END OF HEADER
E31 2019 12 25 12 40 00 -.471058825497D-03 -.184741111298D-12  .000000000000D+00
      .124000000000D+03  .210187500000D+03  .235616957249D-08  .192620307386D+01
      .979751348495D-05  .299881328829D-03  .962242484093D-05  .544063211250D+04
      .304800000000D+06 -.465661287308D-07 -.285560519784D+01  .875443220139D-07
      .984957153408D+00  .146406250000D+03 -.129405837395D+01 -.513021369399D-08
      .321441960776D-10  .516000000000D+03  .208500000000D+04
      .312000000000D+01  .000000000000D+00  .256113708019D-08  .302679836750D-08
      .305494000000D+06
E31 2019 12 25 12 40 00 -.471058825497D-03 -.184741111298D-12  .000000000000D+00
      .124000000000D+03  .210187500000D+03  .235616957249D-08  .192620307386D+01
      .979751348495D-05  .299881328829D-03  .962242484093D-05  .544063211250D+04
      .304800000000D+06 -.465661287308D-07 -.285560519784D+01  .875443220139D-07
      .984957153408D+00  .146406250000D+03 -.129405837395D+01 -.513021369399D-08
      .321441960776D-10  .513000000000D+03  .208500000000D+04
      .312000000000D+01  .000000000000D+00  .256113708019D-08  .302679836750D-08
      .305515000000D+06
E31 2019 12 25 12 40 00 -.471058418043D-03 -.170530256582D-12  .000000000000D+00
      .124000000000D+03  .210187500000D+03  .235616957249D-08  .192620307386D+01
      .979751348495D-05  .299881328829D-03  .962242484093D-05  .544063211250D+04
      .304800000000D+06 -.465661287308D-07 -.285560519784D+01  .875443220139D-07
      .984957153408D+00  .146406250000D+03 -.129405837395D+01 -.513021369399D-08
      .321441960776D-10  .258000000000D+03  .208500000000D+04
      .312000000000D+01  .000000000000D+00  .256113708019D-08  .000000000000D+00
      .305530000000D+06
E 4 2019 12 25 12 40 00 -.432201428339D-03 -.754596385377D-11  .000000000000D+00
      .124000000000D+03  .170312500000D+02  .387837583564D-08  .111062483149D+01
      .761821866035D-06  .999731710181D-04  .402145087719D-05  .544060000038D+04
      .304800000000D+06 -.391155481339D-07  .133525424654D+01  .186264514923D-07
      .952781891167D+00  .249562500000D+03  .161808542581D+01 -.577916929703D-08
      .192150860997D-09  .258000000000D+03  .208500000000D+04
      .312000000000D+01  .000000000000D+00 -.535510480404D-08  .000000000000D+00
      .305530000000D+06
E15 2019 12 25 12 40 00  .883150729351D-03 -.132160948851D-11  .000000000000D+00
      .124000000000D+03 -.219125000000D+03  .260939440604D-08 -.285275353309D+01
     -.102687627077D-04  .394347589463D-03  .380165874958D-05  .544060246468D+04
      .304800000000D+06  .596046447754D-07 -.773621340777D+00 -.279396772385D-07
      .989600933765D+00  .269343750000D+03 -.173597638938D+01 -.551487257372D-08
     -.254296306748D-09  .258000000000D+03  .208500000000D+04
      .312000000000D+01  .000000000000D+00  .442378222942D-08  .000000000000D+00
      .305530000000D+06
E 5 2019 12 25 12 40 00 -.419791613240D-03  .322586402035D-11  .000000000000D+00
      .124000000000D+03  .148437500000D+02  .392194907921D-08 -.269423208844D+00
      .843778252602D-06  .177442794666D-03  .415369868279D-05  .544060092354D+04
      .304800000000D+06  .465661287308D-07  .133517854199D+01  .149011611938D-07
      .952751880866D+00  .246750000000D+03  .142366375644D+01 -.579738434147D-08
      .246081678861D-09  .516000000000D+03  .208500000000D+04
      .312000000000D+01  .000000000000D+00  .186264514923D-08  .209547579288D-08
      .305614000000D+06
E 5 2019 12 25 12 40 00 -.419791613240D-03  .322586402035D-11  .000000000000D+00
      .124000000000D+03  .148437500000D+02  .392194907921D-08 -.269423208844D+00
      .843778252602D-06  .177442794666D-03  .415369868279D-05  .544060092354D+04
      .304800000000D+06  .465661287308D-07  .133517854199D+01  .149011611938D-07
      .952751880866D+00  .246750000000D+03  .142366375644D+01 -.579738434147D-08
      .246081678861D-09  .513000000000D+03  .208500000000D+04
      .312000000000D+01  .000000000000D+00  .186264514923D-08  .209547579288D-08
      .305635000000D+06
E 5 2019 12 25 12 40 00 -.419791147579D-03  .324007487507D-11  .000000000000D+00
      .124000000000D+03  .148437500000D+02  .392194907921D-08 -.269423208844D+00
      .843778252602D-06  .177442794666D-03  .415369868279D-05  .544060092354D+04
      .304800000000D+06  .465661287308D-07  .133517854199D+01  .149011611938D-07
      .952751880866D+00  .246750000000D+03  .142366375644D+01 -.579738434147D-08
      .246081678861D-09  .258000000000D+03  .208500000000D+04
      .312000000000D+01  .000000000000D+00  .186264514923D-08  .000000000000D+00
      .305680000000D+06
